OBJECT_NAME,OBJECT_ID,EPOCH,MEAN_MOTION,ECCENTRICITY,INCLINATION,RA_OF_ASC_NODE,ARG_OF_PERICENTER,MEAN_ANOMALY,EPHEMERIS_TYPE,CLASSIFICATION_TYPE,NORAD_CAT_ID,ELEMENT_SET_NO,REV_AT_EPOCH,BSTAR,MEAN_MOTION_DOT,MEAN_MOTION_DDOT
STARLINK-38047,2026-150G,2026-07-14T12:13:16.222656,15.80859566,.00036662,97.2820,33.8437,125.3440,234.8171,0,U,69745,999,321,.71675095E-3,.139688E-2,0
STARLINK-38046,2026-150H,2026-07-14T12:10:28.912512,15.80959775,.00020247,97.2828,33.8477,120.7577,239.3891,0,U,69746,999,321,.13381092E-2,.265878E-2,0
STARLINK-38067,2026-150J,2026-07-14T20:00:01.999008,15.75197611,.0001282,97.2835,34.1605,86.2129,252.7759,0,U,69747,999,324,-.42675E-3,-.63333E-3,0
STARLINK-37988,2026-150K,2026-07-14T20:00:01.999008,15.75187261,.0001286,97.2833,34.1646,98.4348,250.5519,0,U,69748,999,324,-.32205E-3,-.47891E-3,0
STARLINK-37987,2026-150L,2026-07-14T20:00:01.999008,15.75168424,.0001162,97.2833,34.1754,82.6209,290.3670,0,U,69749,999,324,-.80352E-4,-.12086E-3,0
STARLINK-38037,2026-150M,2026-07-14T12:03:54.617472,15.80940954,.00013847,97.2817,33.8530,110.0022,250.1396,0,U,69750,999,321,.12317817E-2,.243905E-2,0
STARLINK-38049,2026-150N,2026-07-14T12:02:26.566368,15.80909708,.00010586,97.2828,33.8556,118.3525,241.7850,0,U,69751,999,321,.90864791E-3,.178269E-2,0
STARLINK-38029,2026-150P,2026-07-14T13:27:11.863008,15.77096114,.0001117,97.2837,33.9285,18.1288,342.0018,0,U,69752,999,322,-.52756E-2,-.781624E-2,0
STARLINK-37965,2026-150Q,2026-07-14T20:00:01.999008,15.75168675,.0001422,97.2831,34.1985,100.0172,328.9637,0,U,69753,999,324,-.82849E-4,-.12458E-3,0
STARLINK-38048,2026-150R,2026-07-14T11:53:37.574592,15.80886716,.00009333,97.2825,33.8638,111.6112,248.5256,0,U,69754,999,321,.74110273E-3,.144656E-2,0
STARLINK-38006,2026-150S,2026-07-14T20:00:01.999008,15.74974209,.0000747,97.2835,34.2228,125.0056,355.9844,0,U,69755,999,324,.13248E-2,.200295E-2,0
STARLINK-38036,2026-150T,2026-07-14T13:18:53.214048,15.80862187,.00015461,97.2839,33.9373,85.1977,274.9468,0,U,69756,999,322,.21718061E-3,.41747E-3,0
STARLINK-38058,2026-150U,2026-07-14T13:18:16.119936,15.82907203,.00078058,97.2841,33.9379,225.7969,134.2660,0,U,69757,999,322,.17500315E-1,.4474732E-1,0
STARLINK-38066,2026-150V,2026-07-14T11:47:09.042432,15.80891489,.0001291,97.2834,33.8708,96.5352,263.6064,0,U,69758,999,321,.7108E-3,.138671E-2,0
STARLINK-38035,2026-150W,2026-07-14T13:18:07.714944,15.80852722,.00012177,97.2840,33.9378,86.0503,274.0904,0,U,69759,999,322,.22737066E-3,.43702E-3,0
STARLINK-38056,2026-150X,2026-07-14T13:13:09.139872,15.80804655,.00012726,97.2844,33.9430,57.3560,302.7831,0,U,69760,999,322,-.23605739E-3,-.45102E-3,0
STARLINK-38069,2026-150Y,2026-07-14T20:00:01.999008,15.80791364,.0001517,97.2838,34.2507,99.3751,87.3649,0,U,69761,999,324,.17303E-3,.33091E-3,0
STARLINK-38019,2026-150Z,2026-07-14T20:00:01.999008,15.75169597,.0000708,97.2834,34.2239,88.2991,36.6737,0,U,69762,999,324,-.11118E-3,-.16665E-3,0
KUIPER-00258,2026-151A,2026-07-14T10:06:03.625920,15.35381914,.00115531,51.8668,184.2903,165.5702,194.5616,0,U,69763,999,189,.18449519E-3,.6068E-4,0
KUIPER-00526,2026-151B,2026-07-14T14:26:52.005120,15.37304927,.0006137,51.8753,183.2602,138.1825,221.9631,0,U,69764,999,192,.17326E-3,.6047E-4,0
KUIPER-00558,2026-151C,2026-07-14T12:58:45.232320,15.36809731,.0007906,51.8752,183.5981,149.8007,210.3437,0,U,69765,999,191,.38645E-3,.13765E-3,0
KUIPER-00569,2026-151D,2026-07-14T12:51:11.570112,15.37458831,.0005013,51.8773,183.5652,132.2423,227.8990,0,U,69766,999,191,.28692E-3,.10329E-3,0
KUIPER-00589,2026-151E,2026-07-14T14:25:45.917760,15.37403566,.0005431,51.8744,183.2562,141.0461,219.0917,0,U,69767,999,192,.2944E-3,.10591E-3,0
KUIPER-00598,2026-151F,2026-07-14T08:31:21.544608,15.35071113,.00106586,51.8651,184.5955,164.6267,195.5044,0,U,69768,999,188,.36217977E-4,.866E-5,0
KUIPER-00604,2026-151G,2026-07-14T12:42:42.496992,15.38226903,.0002728,51.8787,183.5229,107.3256,252.8030,0,U,69769,999,191,.31838614E-3,.11804E-3,0
KUIPER-00609,2026-151H,2026-07-14T14:11:26.657664,15.38621602,.0001109,51.8789,183.1867,51.0594,309.0493,0,U,69770,999,192,.20188E-3,.7434E-4,0
KUIPER-00611,2026-151J,2026-07-14T12:40:16.206240,15.38436681,.00016555,51.8792,183.5082,103.5649,256.5523,0,U,69771,999,191,.32447664E-3,.12122E-3,0
KUIPER-00612,2026-151K,2026-07-14T12:46:06.611808,15.37925897,.00036568,51.8783,183.5406,113.8275,246.3096,0,U,69772,999,191,.33865606E-3,.12457E-3,0
KUIPER-00614,2026-151L,2026-07-14T14:17:15.148608,15.38143073,.0002735,51.8795,183.2124,116.9118,243.2149,0,U,69773,999,192,.33773E-3,.12511E-3,0
KUIPER-00615,2026-151M,2026-07-14T08:13:26.348448,15.37218119,.00060848,51.8764,184.5217,144.0556,216.0841,0,U,69774,999,188,.29168933E-3,.10426E-3,0
